OBJECT_NAME,OBJECT_ID,EPOCH,MEAN_MOTION,ECCENTRICITY,INCLINATION,RA_OF_ASC_NODE,ARG_OF_PERICENTER,MEAN_ANOMALY,EPHEMERIS_TYPE,CLASSIFICATION_TYPE,NORAD_CAT_ID,ELEMENT_SET_NO,REV_AT_EPOCH,BSTAR,MEAN_MOTION_DOT,MEAN_MOTION_DDOT
STARLINK-37050,2026-053X,2026-06-04T05:16:48.145152,15.33450341,.00011759,97.2852,30.5954,75.0312,285.1060,0,U,68228,999,1346,.62339342E-3,.20107E-3,0
STARLINK-37081,2026-053Y,2026-06-04T18:55:57.186912,15.49197396,.00018687,97.2836,33.9437,103.4340,256.7120,0,U,68229,999,1375,.11085669E-2,.60687E-3,0
STARLINK-37100,2026-053Z,2026-06-04T14:36:41.643648,15.33451769,.0002801,97.2837,30.9869,110.7400,249.4143,0,U,68230,999,1354,.67282887E-3,.21715E-3,0
STARLINK-37104,2026-053AA,2026-06-04T05:08:58.412544,15.33451189,.00014057,97.2849,30.6022,88.9720,271.1683,0,U,68231,999,1348,.77036282E-3,.24882E-3,0
STARLINK-37027,2026-054A,2026-06-03T12:53:58.823232,15.34410189,.00008484,53.1594,251.0879,74.5698,285.5398,0,U,68232,999,1223,.7619443E-3,.25463E-3,0
STARLINK-37132,2026-054B,2026-06-04T13:50:49.528032,15.49393119,.00005131,53.1579,247.6780,37.4278,322.6767,0,U,68233,999,1237,.16437267E-2,.9233E-3,0
STARLINK-37101,2026-054C,2026-06-04T22:00:05.000256,15.49290620,.00010787,53.1579,248.7962,80.4629,87.3197,0,U,68234,999,592,.21356183E-3,.11439E-3,0
STARLINK-36963,2026-054D,2026-06-04T22:00:05.000256,15.34415335,.00012105,53.1573,244.9883,91.5260,157.0200,0,U,68235,999,589,-.74186062E-3,-.25369E-3,0
STARLINK-37127,2026-054E,2026-06-04T22:00:05.000256,15.49289991,.00014706,53.1587,248.5491,79.7355,211.7504,0,U,68236,999,592,.64269478E-4,.3125E-4,0
STARLINK-37095,2026-054F,2026-06-03T12:02:35.138112,15.34366646,.0001242,53.1577,251.5779,72.0524,288.0614,0,U,68237,999,1222,.84775E-3,.28344E-3,0
STARLINK-37097,2026-054G,2026-06-03T20:40:35.247648,15.35405043,.00022739,53.1611,249.5538,42.7167,317.4013,0,U,68238,999,1228,.83190207E-3,.28754E-3,0
STARLINK-37096,2026-054H,2026-06-04T10:52:24.247488,15.35414141,.00018253,53.1596,246.8495,60.3470,299.7715,0,U,68239,999,1237,.71513081E-3,.24657E-3,0
STARLINK-37092,2026-054J,2026-06-04T22:00:05.000256,15.49291417,.00014112,53.1590,248.3369,85.6001,308.9863,0,U,68240,999,595,.82294726E-4,.4128E-4,0
STARLINK-37094,2026-054K,2026-06-03T14:32:12.081696,15.30191277,.00011727,53.1591,258.0057,62.5202,297.5918,0,U,68241,999,1214,.64058015E-3,.18656E-3,0
STARLINK-36356,2026-054L,2026-06-03T12:29:16.377216,15.30206179,.00011531,53.1566,258.1908,110.4789,249.6335,0,U,68242,999,1213,.61557145E-3,.1792E-3,0
STARLINK-36345,2026-054M,2026-06-03T14:09:35.899776,15.34400187,.00009851,53.1585,250.7024,69.2199,290.8909,0,U,68243,999,1224,.1039737E-2,.34917E-3,0
STARLINK-36310,2026-054N,2026-06-04T22:00:05.000256,15.49291075,.00012758,53.1581,248.1178,81.1998,57.6257,0,U,68244,999,596,.52973667E-3,.29105E-3,0
STARLINK-36247,2026-054P,2026-06-04T21:00:35.184672,15.49391137,.00013941,53.1565,246.7000,47.7382,312.3745,0,U,68245,999,1241,.11628746E-2,.64954E-3,0
STARLINK-37043,2026-054Q,2026-06-04T22:00:05.000256,15.49290130,.00015854,53.1584,248.2882,73.1931,342.9088,0,U,68246,999,585,.11101407E-3,.5726E-4,0
STARLINK-37044,2026-054R,2026-06-04T14:30:44.125632,15.49366540,.00005026,53.1577,247.8562,64.4576,295.6485,0,U,68247,999,1237,.10187829E-2,.5674E-3,0
STARLINK-36997,2026-054S,2026-06-03T14:21:33.211584,15.30209537,.00010998,53.1600,257.9627,90.0520,270.0607,0,U,68248,999,1214,.8546995E-3,.25047E-3,0
STARLINK-37141,2026-054T,2026-06-04T14:40:13.606176,15.49372058,.00012411,53.1564,247.9192,110.7114,249.4029,0,U,68249,999,1237,.98596844E-3,.54896E-3,0
STARLINK-37087,2026-054U,2026-06-04T22:00:05.000256,15.35415433,.00009704,53.1589,248.6065,72.9396,184.8763,0,U,68250,999,585,-.59058803E-3,-.20934E-3,0
STARLINK-36274,2026-054V,2026-06-03T12:33:49.601664,15.30186720,.00010726,53.1560,258.1963,36.0150,324.0923,0,U,68251,999,1213,.80301371E-3,.23489E-3,0
STARLINK-37085,2026-054W,2026-06-04T15:28:08.637024,15.49320523,.00025931,53.1575,247.3854,9.3458,350.7599,0,U,68252,999,1238,.99602617E-3,.55366E-3,0
STARLINK-37086,2026-054X,2026-06-03T12:52:17.792256,15.49336557,.00007944,53.1572,253.2818,96.6252,263.4848,0,U,68253,999,1220,.89625118E-3,.49764E-3,0
STARLINK-37084,2026-054Y,2026-06-04T18:47:46.612896,15.49339495,.00017009,53.1575,246.8360,39.9037,320.2096,0,U,68254,999,1240,.1320634E-2,.73777E-3,0
STARLINK-37075,2026-054Z,2026-06-04T22:00:05.000256,15.49291523,.00015094,53.1579,248.0923,84.9486,66.3200,0,U,68255,999,596,.15481436E-3,.8165E-4,0
STARLINK-36333,2026-054AA,2026-06-04T16:57:25.214112,15.30222530,.00008311,53.1584,252.7702,92.0582,268.0514,0,U,68256,999,1231,.12231221E-2,.36067E-3,0
STARLINK-36745,2026-054AB,2026-06-03T21:13:15.021696,15.34329198,.0001258,53.1581,249.6927,88.1043,272.0103,0,U,68257,999,1228,.16486E-2,.55612E-3,0
