STARLINK-37050          
1 68228U 26053X   26155.22000168  .00020107  00000+0  62339-3 0  9995
2 68228  97.2852  30.5954 0001175  75.0312 285.1060 15.33450341 13464
STARLINK-37081          
1 68229U 26053Y   26155.78885633  .00060687  00000+0  11086-2 0  9994
2 68229  97.2836  33.9437 0001868 103.4340 256.7120 15.49197396 13754
STARLINK-37100          
1 68230U 26053Z   26155.60881532  .00021715  00000+0  67283-3 0  9991
2 68230  97.2837  30.9869 0002801 110.7400 249.4143 15.33451769 13540
STARLINK-37104          
1 68231U 26053AA  26155.21456496  .00024882  00000+0  77036-3 0  9991
2 68231  97.2849  30.6022 0001405  88.9720 271.1683 15.33451189 13482
STARLINK-37027          
1 68232U 26054A   26154.53748638  .00025463  00000+0  76194-3 0  9999
2 68232  53.1594 251.0879 0000848  74.5698 285.5398 15.34410189 12235
STARLINK-37132          
1 68233U 26054B   26155.57696213  .00092330  00000+0  16437-2 0  9996
2 68233  53.1579 247.6780 0000513  37.4278 322.6767 15.49393119 12379
STARLINK-37101          
1 68234U 26054C   26155.91672454  .00011439  00000+0  21356-3 0  9994
2 68234  53.1579 248.7962 0001078  80.4629  87.3197 15.49290620  5927
STARLINK-36963          
1 68235U 26054D   26155.91672454 -.00025369  00000+0 -74186-3 0  9993
2 68235  53.1573 244.9883 0001210  91.5260 157.0200 15.34415335  5896
STARLINK-37127          
1 68236U 26054E   26155.91672454  .00003125  00000+0  64269-4 0  9990
2 68236  53.1587 248.5491 0001470  79.7355 211.7504 15.49289991  5920
STARLINK-37095          
1 68237U 26054F   26154.50179558  .00028344  00000+0  84775-3 0  9995
2 68237  53.1577 251.5779 0001242  72.0524 288.0614 15.34366646 12221
STARLINK-37097          
1 68238U 26054G   26154.86151907  .00028754  00000+0  83190-3 0  9998
2 68238  53.1611 249.5538 0002273  42.7167 317.4013 15.35405043 12285
STARLINK-37096          
1 68239U 26054H   26155.45305842  .00024657  00000+0  71513-3 0  9998
2 68239  53.1596 246.8495 0001825  60.3470 299.7715 15.35414141 12375
STARLINK-37092          
1 68240U 26054J   26155.91672454  .00004128  00000+0  82295-4 0  9998
2 68240  53.1590 248.3369 0001411  85.6001 308.9863 15.49291417  5956
STARLINK-37094          
1 68241U 26054K   26154.60569539  .00018656  00000+0  64058-3 0  9990
2 68241  53.1591 258.0057 0001172  62.5202 297.5918 15.30191277 12147
STARLINK-36356          
1 68242U 26054L   26154.52032844  .00017920  00000+0  61557-3 0  9990
2 68242  53.1566 258.1908 0001153 110.4789 249.6335 15.30206179 12136
STARLINK-36345          
1 68243U 26054M   26154.58999884  .00034917  00000+0  10397-2 0  9993
2 68243  53.1585 250.7024 0000985  69.2199 290.8909 15.34400187 12249
STARLINK-36310          
1 68244U 26054N   26155.91672454  .00029105  00000+0  52974-3 0  9994
2 68244  53.1581 248.1178 0001275  81.1998  57.6257 15.49291075  5966
STARLINK-36247          
1 68245U 26054P   26155.87540723  .00064954  00000+0  11629-2 0  9995
2 68245  53.1565 246.7000 0001394  47.7382 312.3745 15.49391137 12415
STARLINK-37043          
1 68246U 26054Q   26155.91672454  .00005726  00000+0  11101-3 0  9996
2 68246  53.1584 248.2882 0001585  73.1931 342.9088 15.49290130  5857
STARLINK-37044          
1 68247U 26054R   26155.60467738  .00056740  00000+0  10188-2 0  9995
2 68247  53.1577 247.8562 0000502  64.4576 295.6485 15.49366540 12375
STARLINK-36997          
1 68248U 26054S   26154.59830106  .00025047  00000+0  85470-3 0  9999
2 68248  53.1600 257.9627 0001099  90.0520 270.0607 15.30209537 12143
STARLINK-37141          
1 68249U 26054T   26155.61126859  .00054896  00000+0  98597-3 0  9995
2 68249  53.1564 247.9192 0001241 110.7114 249.4029 15.49372058 12379
STARLINK-37087          
1 68250U 26054U   26155.91672454 -.00020934  00000+0 -59059-3 0  9995
2 68250  53.1589 248.6065 0000970  72.9396 184.8763 15.35415433  5856
STARLINK-36274          
1 68251U 26054V   26154.52349076  .00023489  00000+0  80301-3 0  9993
2 68251  53.1560 258.1963 0001072  36.0150 324.0923 15.30186720 12136
STARLINK-37085          
1 68252U 26054W   26155.64454441  .00055366  00000+0  99603-3 0  9995
2 68252  53.1575 247.3854 0002593   9.3458 350.7599 15.49320523 12388
STARLINK-37086          
1 68253U 26054X   26154.53631704  .00049764  00000+0  89625-3 0  9990
2 68253  53.1572 253.2818 0000794  96.6252 263.4848 15.49336557 12206
STARLINK-37084          
1 68254U 26054Y   26155.78317839  .00073777  00000+0  13206-2 0  9991
2 68254  53.1575 246.8360 0001700  39.9037 320.2096 15.49339495 12402
STARLINK-37075          
1 68255U 26054Z   26155.91672454  .00008165  00000+0  15481-3 0  9991
2 68255  53.1579 248.0923 0001509  84.9486  66.3200 15.49291523  5968
STARLINK-36333          
1 68256U 26054AA  26155.70654183  .00036067  00000+0  12231-2 0  9999
2 68256  53.1584 252.7702 0000831  92.0582 268.0514 15.30222530 12314
STARLINK-36745          
1 68257U 26054AB  26154.88420164  .00055612  00000+0  16486-2 0  9991
2 68257  53.1581 249.6927 0001258  88.1043 272.0103 15.34329198 12285
